NORAD_CAT_ID,OBJECT_NAME,OBJECT_TYPE,EPOCH,MEAN_MOTION,ECCENTRICITY,INCLINATION,RA_OF_ASC_NODE,ARG_OF_PERICENTER,MEAN_ANOMALY,BSTAR,MEAN_MOTION_DOT,MEAN_MOTION_DDOT,TLE_LINE0,TLE_LINE1,TLE_LINE2,SEMIMAJOR_AXIS,PERIOD,APOGEE,PERIGEE,DECAYED
54209.0,STARLINK-5259,PAYLOAD,2022-11-03 16:00:00,15.88225732,0.0019211,53.2174,111.3975,198.8682,125.1259,-0.0048068,-0.01366733,0.00052098,0 STARLINK-5259,1 54209U 22141BE  22307.66667824 -.01366733  52098-3 -48068-2 0  9995,2 54209  53.2174 111.3975 0019211 198.8682 125.1259 15.88225732  1309,6685.394,90.667,320.103,294.416,0.0
54209.0,STARLINK-5259,PAYLOAD,2022-11-03 22:00:00,15.87551611,0.0016579,53.2172,110.1344,205.7914,108.1373,-0.0048388,-0.01325379,0.00048955,0 STARLINK-5259,1 54209U 22141BE  22307.91667824 -.01325379  48955-3 -48388-2 0  9996,2 54209  53.2172 110.1344 0016579 205.7914 108.1373 15.87551611  1309,6687.2869999999975,90.706,320.238,298.065,0.0
54209.0,STARLINK-5259,PAYLOAD,2022-11-04 06:00:00,15.86704828,0.0013706,53.2176,108.4482,213.9463,205.6289,-0.0052086,-0.01200661,0.0,0 STARLINK-5259,1 54209U 22141BE  22308.25001157 -.01200661  00000-0 -52086-2 0  9997,2 54209  53.2176 108.4482 0013706 213.9463 205.6289 15.86704828  1392,6689.666,90.754,320.7,302.362,0.0
54209.0,STARLINK-5259,PAYLOAD,2022-11-04 14:00:01,15.85812382,0.0011056,53.2176,106.7672,225.3428,298.8518,-0.0052486,-0.01158527,0.0,0 STARLINK-5259,1 54209U 22141BE  22308.58334491 -.01158527  00000-0 -52486-2 0  9990,2 54209  53.2176 106.7672 0011056 225.3428 298.8518 15.85812382  1302,6692.175,90.805,321.439,306.641,0.0
54209.0,STARLINK-5259,PAYLOAD,2022-11-04 22:00:01,15.84951251,0.0008933,53.2173,105.0892,250.243,17.5823,-0.0055367,-0.011889,0.0,0 STARLINK-5259,1 54209U 22141BE  22308.91668981 -.01188900  00000-0 -55367-2 0  9990,2 54209  53.2173 105.0892 0008933 250.2430  17.5823 15.84951251  1498,6694.599,90.855,322.444,310.4840000000001,0.0
54209.0,STARLINK-5259,PAYLOAD,2022-11-05 12:00:00,15.83443121,0.0005715,53.217,102.153,267.847,88.6436,-0.0060508,-0.01202496,0.0,0 STARLINK-5259,1 54209U 22141BE  22309.50001157 -.01202496  00000-0 -60508-2 0  9992,2 54209  53.2170 102.1530 0005715 267.8470  88.6436 15.83443121  1596,6698.849,90.941,324.543,316.886,0.0
54209.0,STARLINK-5259,PAYLOAD,2022-11-05 14:00:01,15.83239277,0.0004834,53.2172,101.7351,270.4429,201.3827,-0.0062555,-0.01227135,0.0,0 STARLINK-5259,1 54209U 22141BE  22309.58335648 -.01227135  00000-0 -62555-2 0  9996,2 54209  53.2172 101.7351 0004834 270.4429 201.3827 15.83239277  1301,6699.424,90.953,324.528,318.051,0.0
54209.0,STARLINK-5259,PAYLOAD,2022-11-05 22:00:01,15.82392403,0.0002493,53.2168,100.0635,293.1133,279.1368,-0.0066286,-0.01244645,0.0,0 STARLINK-5259,1 54209U 22141BE  22309.91668981 -.01244645  00000-0 -66286-2 0  9992,2 54209  53.2168 100.0635 0002493 293.1133 279.1368 15.82392403  1657,6701.814,91.001,325.35,322.008,0.0
54209.0,STARLINK-5259,PAYLOAD,2022-11-06 14:00:01,15.80638522,0.0001351999999999,53.217,96.7224,40.5998,9.3451,-0.0070648,-0.01223597,0.0,0 STARLINK-5259,1 54209U 22141BE  22310.58334491 -.01223597  00000-0 -70648-2 0  9993,2 54209  53.2170  96.7224 0001352  40.5998   9.3451 15.80638522  1762,6706.771,91.102,329.543,327.7290000000001,0.0
54209.0,STARLINK-5259,PAYLOAD,2022-11-07 14:00:01,15.780300400000002,0.0001213,53.2173,91.7288,40.1886,298.5589,-0.0079024,-0.01215154,0.0,0 STARLINK-5259,1 54209U 22141BE  22311.58334491 -.01215154  00000-0 -79024-2 0  9991,2 54209  53.2173  91.7288 0001213  40.1886 298.5589 15.78030040  1928,6714.16,91.253,336.839,335.21,0.0
54209.0,STARLINK-5259,PAYLOAD,2022-11-07 22:00:00,15.77148271,0.0001424,53.2171,90.0694,37.1699,35.7645,-0.0080752,-0.01195846,0.0,0 STARLINK-5259,1 54209U 22141BE  22311.91667824 -.01195846  00000-0 -80752-2 0  9992,2 54209  53.2171  90.0694 0001424  37.1699  35.7645 15.77148271  1302,6716.6619999999975,91.304,339.483,337.571,0.0
54209.0,STARLINK-5259,PAYLOAD,2022-11-08 08:00:01,15.76061532,0.0001327,53.2172,87.9949,45.5065,233.6891,-0.0084562999999999,-0.01193183,0.0,0 STARLINK-5259,1 54209U 22141BE  22312.33334491 -.01193183  00000-0 -84563-2 0  9996,2 54209  53.2172  87.9949 0001327  45.5065 233.6891 15.76061532  2039,6719.749,91.367,342.506,340.722,0.0
54209.0,STARLINK-5259,PAYLOAD,2022-11-08 14:00:01,15.75406003,0.0001351,53.217,86.7546,50.3257,207.8439,-0.0086429,-0.01185561,0.0,0 STARLINK-5259,1 54209U 22141BE  22312.58334491 -.01185561  00000-0 -86429-2 0  9997,2 54209  53.2170  86.7546 0001351  50.3257 207.8439 15.75406003  1306,6721.613,91.405,344.386,342.57,0.0
54209.0,STARLINK-5259,PAYLOAD,2022-11-08 22:00:00,15.74550053,0.0001604,53.2166,85.1018,27.2662,321.9455,-0.0090241,-0.01191475,0.0,0 STARLINK-5259,1 54209U 22141BE  22312.91667824 -.01191475  00000-0 -90241-2 0  9991,2 54209  53.2166  85.1018 0001604  27.2662 321.9455 15.74550053  1302,6724.049,91.455,346.992,344.835,0.0
54209.0,STARLINK-5259,PAYLOAD,2022-11-09 04:00:00,15.73745591,0.0001571999999999,53.2175,83.8607,37.4218,289.4223,-0.0048026,-0.00640598,0.0,0 STARLINK-5259,1 54209U 22141BE  22313.16667824 -.00640598  00000-0 -48026-2 0  9997,2 54209  53.2175  83.8607 0001572  37.4218 289.4223 15.73745591  2174,6726.34,91.501,349.26199999999994,347.148,0.0
54209.0,STARLINK-5259,PAYLOAD,2022-11-09 12:00:00,15.73261911,0.0001679,53.216,82.2124,34.3135,21.8485,-0.00050044,-0.00070457,0.0,0 STARLINK-5259,1 54209U 22141BE  22313.50001157 -.00070457  00000-0 -50044-3 0  9991,2 54209  53.2160  82.2124 0001679  34.3135  21.8485 15.73261911  2220,6727.719,91.53,350.713,348.454,0.0
54209.0,STARLINK-5259,PAYLOAD,2022-11-09 14:00:01,15.73245339,0.0001807,53.2157,81.8007,33.8216,134.5882,-0.00035382,-0.00050081,0.0,0 STARLINK-5259,1 54209U 22141BE  22313.58334491 -.00050081  00000-0 -35382-3 0  9998,2 54209  53.2157  81.8007 0001807  33.8216 134.5882 15.73245339  1305,6727.766,91.531,350.847,348.415,0.0
54209.0,STARLINK-5259,PAYLOAD,2022-11-09 22:00:01,15.73241582,0.000181,53.2149,80.1512,25.9181,231.5023,-0.00030105,-0.00042735,0.0,0 STARLINK-5259,1 54209U 22141BE  22313.91668981 -.00042735  00000-0 -30105-3 0  9994,2 54209  53.2149  80.1512 0001810  25.9181 231.5023 15.73241582  2285,6727.776999999999,91.531,350.8590000000001,348.4240000000001,0.0
54209.0,STARLINK-5259,PAYLOAD,2022-11-10 14:00:01,15.73052263,0.0001409999999999,53.2169,76.8506,32.5051,42.7845,0.0014344,0.00204365,0.0,0 STARLINK-5259,1 54209U 22141BE  22314.58334491  .00204365  00000-0  14344-2 0  9997,2 54209  53.2169  76.8506 0001410  32.5051  42.7845 15.73052263  1300,6728.316,91.542,351.13,349.233,0.0
54209.0,STARLINK-5259,PAYLOAD,2022-11-10 20:00:01,15.73233586,0.0002002,53.2157,75.6156,23.7411,28.2304,0.00032519,0.00045332,0.0,0 STARLINK-5259,1 54209U 22141BE  22314.83334491  .00045332  00000-0  32519-3 0  9997,2 54209  53.2157  75.6156 0002002  23.7411  28.2304 15.73233586  2438,6727.799,91.531,351.011,348.3180000000001,0.0
54209.0,STARLINK-5259,PAYLOAD,2022-11-10 22:00:00,15.73293023,0.0001873,53.2159,75.2025,23.2583,140.9459,-0.00065861,-0.00092417,0.0,0 STARLINK-5259,1 54209U 22141BE  22314.91667824 -.00092417  00000-0 -65861-3 0  9999,2 54209  53.2159  75.2025 0001873  23.2583 140.9459 15.73293023  1301,6727.63,91.528,350.755,348.235,0.0
54209.0,STARLINK-5259,PAYLOAD,2022-11-11 06:00:00,15.72964175,0.0001968,53.2166,73.5501,32.4853,220.7902,0.0015972,0.00227407,0.0,0 STARLINK-5259,1 54209U 22141BE  22315.25001157  .00227407  00000-0  15972-2 0  9992,2 54209  53.2166  73.5501 0001968  32.4853 220.7902 15.72964175  2499,6728.568,91.547,351.75699999999995,349.108,0.0
54209.0,STARLINK-5259,PAYLOAD,2022-11-11 14:00:01,15.73171666,0.0002304,53.2159,71.9037,32.1721,309.9796,0.00030908,0.00042929,0.0,0 STARLINK-5259,1 54209U 22141BE  22315.58334491  .00042929  00000-0  30908-3 0  9999,2 54209  53.2159  71.9037 0002304  32.1721 309.9796 15.73171666  2557,6727.976,91.535,351.391,348.291,0.0
54209.0,STARLINK-5259,PAYLOAD,2022-11-11 22:00:00,15.73258419,0.0002288,53.2153,70.2541,26.209,44.8567,-0.00074,-0.00103481,0.0,0 STARLINK-5259,1 54209U 22141BE  22315.91667824 -.00103481  00000-0 -74000-3 0  9999,2 54209  53.2153  70.2541 0002288  26.2090  44.8567 15.73258419  1302,6727.729,91.53,351.1330000000001,348.05400000000014,0.0
54209.0,STARLINK-5259,PAYLOAD,2022-11-12 06:00:00,15.73143181,0.0001963,53.2155,68.6031,24.641,135.3892,0.00084022,0.00118692,0.0,0 STARLINK-5259,1 54209U 22141BE  22316.25001157  .00118692  00000-0  84022-3 0  9991,2 54209  53.2155  68.6031 0001963  24.6410 135.3892 15.73143181  2651,6728.057,91.536,351.24300000000005,348.601,0.0
54209.0,STARLINK-5259,PAYLOAD,2022-11-12 14:00:01,15.73235577,0.0002203,53.2157,66.9557,20.9173,228.0135,4.8491e-05,6.2e-05,0.0,0 STARLINK-5259,1 54209U 22141BE  22316.58334491  .00006200  00000-0  48491-4 0  9999,2 54209  53.2157  66.9557 0002203  20.9173 228.0135 15.73235577  1302,6727.794,91.531,351.141,348.177,0.0
54209.0,STARLINK-5259,PAYLOAD,2022-11-12 22:00:00,15.73260075,0.0002263,53.2158,65.3058,16.8762,321.0221,-0.00070523,-0.00098709,0.0,0 STARLINK-5259,1 54209U 22141BE  22316.91667824 -.00098709  00000-0 -70523-3 0  9992,2 54209  53.2158  65.3058 0002263  16.8762 321.0221 15.73260075  2768,6727.724,91.53,351.111,348.066,0.0
54209.0,STARLINK-5259,PAYLOAD,2022-11-13 14:00:01,15.7312314,0.0002386,53.216,62.007,12.1258,143.63,7.730000000000001e-05,0.00010206,0.0,0 STARLINK-5259,1 54209U 22141BE  22317.58334491  .00010206  00000-0  77300-4 0  9992,2 54209  53.2160  62.0070 0002386  12.1258 143.6300 15.73123140  2862,6728.114000000001,91.538,351.585,348.374,0.0
54209.0,STARLINK-5259,PAYLOAD,2022-11-13 22:00:00,15.73157975,0.0002397,53.2155,60.3571,11.2451,233.3434,0.00018627,0.00025556,0.0,0 STARLINK-5259,1 54209U 22141BE  22317.91667824  .00025556  00000-0  18627-3 0  9998,2 54209  53.2155  60.3571 0002397  11.2451 233.3434 15.73157975  1306,6728.015,91.536,351.49300000000005,348.267,0.0
